STARLINK-35742          
1 66276U 25247M   26160.19549171  .00001531  00000+0  63810-4 0  9990
2 66276  53.1570 126.4043 0000803  83.4204 276.6888 15.30186876 35099
STARLINK-35708          
1 66277U 25247N   26160.19415663  .00020728  00000+0  62297-3 0  9995
2 66277  53.1580 124.9850 0001215  97.3362 262.7779 15.34396887 35114
STARLINK-35713          
1 66278U 25247P   26160.16680439  .00029401  00000+0  87733-3 0  9997
2 66278  53.1583 124.8072 0001409  78.5780 281.5381 15.34420243 35115
STARLINK-35724          
1 66279U 25247Q   26160.18412142  .00022867  00000+0  68575-3 0  9996
2 66279  53.1594 126.3360 0001009  97.1903 262.9215 15.34404153 35048
STARLINK-35726          
1 66280U 25247R   26160.17311721  .00022210  00000+0  66642-3 0  9993
2 66280  53.1594 124.8538 0001261  83.2622 276.8524 15.34404594 35062
STARLINK-35727          
1 66281U 25247S   26160.19674308  .00013238  00000+0  40217-3 0  9999
2 66281  53.1589 126.4142 0001356 104.4793 255.6360 15.34404168 35044
STARLINK-35776          
1 66282U 25247T   26160.19254093  .00023415  00000+0  70197-3 0  9993
2 66282  53.1596 126.3907 0001349 109.4395 250.6753 15.34399730 35045
STARLINK-35774          
1 66283U 25247U   26160.16670139 -.00007900  00000+0 -22897-3 0  9991
2 66283  53.1576 126.5921 0001131  88.5219  85.7406 15.33568236  5916
STARLINK-35830          
1 66284U 25247V   26160.20287794  .00019079  00000+0  65451-3 0  9999
2 66284  53.1575 126.4487 0001146  87.2851 272.8281 15.30206028 35048
STARLINK-35819          
1 66285U 25247W   26160.19760176  .00013520  00000+0  46768-3 0  9993
2 66285  53.1571 126.4147 0001206  83.2595 276.8543 15.30205290 35041
STARLINK-35783          
1 66286U 25247X   26160.19338091  .00015493  00000+0  53400-3 0  9993
2 66286  53.1569 126.3905 0001117 103.2795 256.8331 15.30208474 35046
STARLINK-34884          
1 66287U 25247Y   26160.19625992  .00025412  00000+0  76065-3 0  9997
2 66287  53.1575 124.9898 0001138  89.8288 270.2844 15.34401657 35061
STARLINK-34896          
1 66288U 25247Z   26160.19205051  .00030356  00000+0  90573-3 0  9991
2 66288  53.1578 124.9615 0001154  87.1894 272.9240 15.34406797 35063
STARLINK-35802          
1 66289U 25247AA  26160.18574205  .00024945  00000+0  74760-3 0  9998
2 66289  53.1583 124.9254 0001111  97.2940 262.8188 15.34372931 35067
STARLINK-35799          
1 66290U 25247AB  26160.18153076  .00032644  00000+0  97296-3 0  9993
2 66290  53.1584 124.8989 0001289  82.5741 277.5408 15.34403714 35114
STARLINK-35800          
1 66291U 25247AC  26160.17101284  .00030588  00000+0  91214-3 0  9996
2 66291  53.1587 124.8337 0001443  83.4853 276.6314 15.34420496 35102
STARLINK-35798          
1 66292U 25247AD  26160.17522014  .00025035  00000+0  74952-3 0  9996
2 66292  53.1584 124.8607 0001213  83.0124 277.1017 15.34403457 35050
STARLINK-35442          
1 66319U 25253A   26158.02667369  .00029203  00000+0  10656-2 0  9998
2 66319  42.9995  68.3119 0001735 268.9358  91.1294 15.27608362 33901
STARLINK-34616          
1 66320U 25253B   26159.41122521  .00022062  00000+0  80916-3 0  9993
2 66320  43.0071  59.7783 0000616 256.9086 103.1697 15.27567172 34201
STARLINK-34615          
1 66321U 25253C   26158.45610278  .00023329  00000+0  85401-3 0  9999
2 66321  43.0011  65.4879 0001289 262.9283  97.1422 15.27602677 33970
STARLINK-35292          
1 66322U 25253D   26160.01382270  .00013768  00000+0  50874-3 0  9995
2 66322  43.0022  56.5636 0001320 277.8222  82.2479 15.27590191 34211
STARLINK-35309          
1 66323U 25253E   26159.00875691  .00021054  00000+0  77220-3 0  9998
2 66323  43.0001  62.7729 0000490 180.9476 179.1375 15.27590208 34055
STARLINK-35506          
1 66324U 25253F   26160.00354336  .00013785  00000+0  50933-3 0  9993
2 66324  42.9965  56.4786 0002705 277.4350  82.6194 15.27590650 34216
STARLINK-35504          
1 66325U 25253G   26159.01133241  .00024709  00000+0  90419-3 0  9994
2 66325  43.0074  62.8018 0002962 281.6952  78.3567 15.27586060 34057
STARLINK-35479          
1 66326U 25253H   26158.46381207  .00024494  00000+0  89612-3 0  9994
2 66326  43.0038  65.5616 0001706 258.6616 101.4044 15.27600286 33973
STARLINK-35507          
1 66327U 25253J   26160.01125090  .00015704  00000+0  57879-3 0  9999
2 66327  43.0001  56.5380 0001345 285.3360  74.7342 15.27591298 34217
STARLINK-35460          
1 66328U 25253K   26159.00361871  .00018085  00000+0  66502-3 0  9994
2 66328  43.0022  62.7368 0000650 209.9078 150.1737 15.27583359 34050
STARLINK-35505          
1 66329U 25253L   26158.45995594  .00022121  00000+0  81059-3 0  9998
2 66329  43.0036  65.5351 0002805 270.1206  89.9324 15.27593754 33977
STARLINK-35512          
1 66330U 25253M   26159.97799108  .00018149  00000+0  66703-3 0  9995
2 66330  43.0026  57.1543 0001523 275.4142  84.6536 15.27599280 34205
STARLINK-35257          
1 66331U 25253N   26160.00740322  .00016391  00000+0  60357-3 0  9992
2 66331  43.0007  56.5058 0001717 280.2004  79.8654 15.27594552 34210
