OBJECT_NAME,OBJECT_ID,EPOCH,MEAN_MOTION,ECCENTRICITY,INCLINATION,RA_OF_ASC_NODE,ARG_OF_PERICENTER,MEAN_ANOMALY,EPHEMERIS_TYPE,CLASSIFICATION_TYPE,NORAD_CAT_ID,ELEMENT_SET_NO,REV_AT_EPOCH,BSTAR,MEAN_MOTION_DOT,MEAN_MOTION_DDOT
STARLINK-35742,2025-247M,2026-06-09T04:41:30.483744,15.30186876,.0000803,53.1570,126.4043,83.4204,276.6888,0,U,66276,999,3509,.6381E-4,.1531E-4,0
STARLINK-35708,2025-247N,2026-06-09T04:39:35.132832,15.34396887,.0001215,53.1580,124.9850,97.3362,262.7779,0,U,66277,999,3511,.62297E-3,.20728E-3,0
STARLINK-35713,2025-247P,2026-06-09T04:00:11.899296,15.34420243,.0001409,53.1583,124.8072,78.5780,281.5381,0,U,66278,999,3511,.87733E-3,.29401E-3,0
STARLINK-35724,2025-247Q,2026-06-09T04:25:08.090688,15.34404153,.0001009,53.1594,126.3360,97.1903,262.9215,0,U,66279,999,3504,.68575E-3,.22867E-3,0
STARLINK-35726,2025-247R,2026-06-09T04:09:17.326944,15.34404594,.0001261,53.1594,124.8538,83.2622,276.8524,0,U,66280,999,3506,.66642E-3,.2221E-3,0
STARLINK-35727,2025-247S,2026-06-09T04:43:18.602112,15.34404168,.0001356,53.1589,126.4142,104.4793,255.6360,0,U,66281,999,3504,.40217E-3,.13238E-3,0
STARLINK-35776,2025-247T,2026-06-09T04:37:15.536352,15.34399730,.0001349,53.1596,126.3907,109.4395,250.6753,0,U,66282,999,3504,.70197E-3,.23415E-3,0
STARLINK-35774,2025-247U,2026-06-09T04:00:03.000096,15.33568236,.0001131,53.1576,126.5921,88.5219,85.7406,0,U,66283,999,591,-.22897E-3,-.79E-4,0
STARLINK-35830,2025-247V,2026-06-09T04:52:08.654016,15.30206028,.0001146,53.1575,126.4487,87.2851,272.8281,0,U,66284,999,3504,.65451E-3,.19079E-3,0
STARLINK-35819,2025-247W,2026-06-09T04:44:32.792064,15.30205290,.0001206,53.1571,126.4147,83.2595,276.8543,0,U,66285,999,3504,.46768E-3,.1352E-3,0
STARLINK-35783,2025-247X,2026-06-09T04:38:28.110624,15.30208474,.0001117,53.1569,126.3905,103.2795,256.8331,0,U,66286,999,3504,.534E-3,.15493E-3,0
STARLINK-34884,2025-247Y,2026-06-09T04:42:36.857088,15.34401657,.0001138,53.1575,124.9898,89.8288,270.2844,0,U,66287,999,3506,.76065E-3,.25412E-3,0
STARLINK-34896,2025-247Z,2026-06-09T04:36:33.164064,15.34406797,.0001154,53.1578,124.9615,87.1894,272.9240,0,U,66288,999,3506,.90573E-3,.30356E-3,0
STARLINK-35802,2025-247AA,2026-06-09T04:27:28.113120,15.34372931,.0001111,53.1583,124.9254,97.2940,262.8188,0,U,66289,999,3506,.7476E-3,.24945E-3,0
STARLINK-35799,2025-247AB,2026-06-09T04:21:24.257664,15.34403714,.0001289,53.1584,124.8989,82.5741,277.5408,0,U,66290,999,3511,.97296E-3,.32644E-3,0
STARLINK-35800,2025-247AC,2026-06-09T04:06:15.509376,15.34420496,.0001443,53.1587,124.8337,83.4853,276.6314,0,U,66291,999,3510,.91214E-3,.30588E-3,0
STARLINK-35798,2025-247AD,2026-06-09T04:12:19.020096,15.34403457,.0001213,53.1584,124.8607,83.0124,277.1017,0,U,66292,999,3505,.74952E-3,.25035E-3,0
STARLINK-35442,2025-253A,2026-06-07T00:38:24.606816,15.27608362,.0001735,42.9995,68.3119,268.9358,91.1294,0,U,66319,999,3390,.10656E-2,.29203E-3,0
STARLINK-34616,2025-253B,2026-06-08T09:52:09.858144,15.27567172,.0000616,43.0071,59.7783,256.9086,103.1697,0,U,66320,999,3420,.80915794E-3,.22062E-3,0
STARLINK-34615,2025-253C,2026-06-07T10:56:47.280192,15.27602677,.00012891,43.0011,65.4879,262.9283,97.1422,0,U,66321,999,3397,.85401172E-3,.23329E-3,0
STARLINK-35292,2025-253D,2026-06-09T00:19:54.281280,15.27590191,.000132,43.0022,56.5636,277.8222,82.2479,0,U,66322,999,3421,.50874E-3,.13768E-3,0
STARLINK-35309,2025-253E,2026-06-08T00:12:36.597024,15.27590208,.00004909,43.0001,62.7729,180.9476,179.1375,0,U,66323,999,3405,.77220216E-3,.21054E-3,0
STARLINK-35506,2025-253F,2026-06-09T00:05:06.146304,15.27590650,.0002705,42.9965,56.4786,277.4350,82.6194,0,U,66324,999,3421,.50933E-3,.13785E-3,0
STARLINK-35504,2025-253G,2026-06-08T00:16:19.120224,15.27586060,.00029625,43.0074,62.8018,281.6952,78.3567,0,U,66325,999,3405,.90419312E-3,.24709E-3,0
STARLINK-35479,2025-253H,2026-06-07T11:07:53.362848,15.27600286,.00017066,43.0038,65.5616,258.6616,101.4044,0,U,66326,999,3397,.89611622E-3,.24494E-3,0
STARLINK-35507,2025-253J,2026-06-09T00:16:12.077760,15.27591298,.0001345,43.0001,56.5380,285.3360,74.7342,0,U,66327,999,3421,.57879E-3,.15704E-3,0
STARLINK-35460,2025-253K,2026-06-08T00:05:12.656544,15.27583359,.00006501,43.0022,62.7368,209.9078,150.1737,0,U,66328,999,3405,.66502361E-3,.18085E-3,0
STARLINK-35505,2025-253L,2026-06-07T11:02:20.193216,15.27593754,.00028054,43.0036,65.5351,270.1206,89.9324,0,U,66329,999,3397,.81059323E-3,.22121E-3,0
STARLINK-35512,2025-253M,2026-06-08T23:28:18.429312,15.27599280,.0001523,43.0026,57.1543,275.4142,84.6536,0,U,66330,999,3420,.66703E-3,.18149E-3,0
STARLINK-35257,2025-253N,2026-06-09T00:10:39.638208,15.27594552,.0001717,43.0007,56.5058,280.2004,79.8654,0,U,66331,999,3421,.60357E-3,.16391E-3,0
